[{"OBJECT_NAME":"JILIN-1 GAOFEN 2F","OBJECT_ID":"2021-097A","EPOCH":"2026-03-09T22:15:16.366464","MEAN_MOTION":15.06938169,"ECCENTRICITY":0.00186372,"INCLINATION":97.6538,"RA_OF_ASC_NODE":195.5232,"ARG_OF_PERICENTER":201.1609,"MEAN_ANOMALY":158.885,"EPHEMERIS_TYPE":0,"CLASSIFICATION_TYPE":"U","NORAD_CAT_ID":49338,"ELEMENT_SET_NO":999,"REV_AT_EPOCH":24136,"BSTAR":0.0003789548,"MEAN_MOTION_DOT":5.624e-5,"MEAN_MOTION_DDOT":0},{"OBJECT_NAME":"STARLINK-3154","OBJECT_ID":"2021-104K","EPOCH":"2026-03-09T17:38:14.440704","MEAN_MOTION":15.08837008,"ECCENTRICITY":0.00013653,"INCLINATION":53.2175,"RA_OF_ASC_NODE":218.5721,"ARG_OF_PERICENTER":84.3986,"MEAN_ANOMALY":275.7162,"EPHEMERIS_TYPE":0,"CLASSIFICATION_TYPE":"U","NORAD_CAT_ID":49417,"ELEMENT_SET_NO":999,"REV_AT_EPOCH":23877,"BSTAR":1.4843761e-5,"MEAN_MOTION_DOT":-5.2e-7,"MEAN_MOTION_DDOT":0}]
